[{"OBJECT_NAME":"SBSS (USA 216)","OBJECT_ID":"2010-048A","EPOCH":"2026-03-09T21:16:11.917056","MEAN_MOTION":15.1572421,"ECCENTRICITY":0.0082264,"INCLINATION":97.7474,"RA_OF_ASC_NODE":312.3885,"ARG_OF_PERICENTER":184.8326,"MEAN_ANOMALY":306.5835,"EPHEMERIS_TYPE":0,"CLASSIFICATION_TYPE":"U","NORAD_CAT_ID":37168,"ELEMENT_SET_NO":999,"REV_AT_EPOCH":83742,"BSTAR":0.00024191,"MEAN_MOTION_DOT":4.946e-5,"MEAN_MOTION_DDOT":0},{"OBJECT_NAME":"STARLINK-36035","OBJECT_ID":"2025-298H","EPOCH":"2026-03-09T22:04:54.591456","MEAN_MOTION":14.99141738,"ECCENTRICITY":0.0002157,"INCLINATION":70.0024,"RA_OF_ASC_NODE":13.8096,"ARG_OF_PERICENTER":277.7374,"MEAN_ANOMALY":82.3541,"EPHEMERIS_TYPE":0,"CLASSIFICATION_TYPE":"U","NORAD_CAT_ID":67082,"ELEMENT_SET_NO":999,"REV_AT_EPOCH":1325,"BSTAR":0.00054139033,"MEAN_MOTION_DOT":6.509e-5,"MEAN_MOTION_DDOT":0}]
